[{"OBJECT_NAME":"STARLINK-1090","OBJECT_ID":"2020-001BG","EPOCH":"2026-03-03T06:00:00.998784","MEAN_MOTION":15.09961587,"ECCENTRICITY":0.0001088,"INCLINATION":53.0652,"RA_OF_ASC_NODE":335.5131,"ARG_OF_PERICENTER":134.6537,"MEAN_ANOMALY":190.1998,"EPHEMERIS_TYPE":0,"CLASSIFICATION_TYPE":"U","NORAD_CAT_ID":44968,"ELEMENT_SET_NO":999,"REV_AT_EPOCH":582,"BSTAR":0.0063907,"MEAN_MOTION_DOT":0.00106187,"MEAN_MOTION_DDOT":0},{"OBJECT_NAME":"STARLINK-1132","OBJECT_ID":"2020-006A","EPOCH":"2026-03-03T01:14:33.874944","MEAN_MOTION":15.42897508,"ECCENTRICITY":0.0004957,"INCLINATION":53.1558,"RA_OF_ASC_NODE":285.4072,"ARG_OF_PERICENTER":164.9537,"MEAN_ANOMALY":195.1617,"EPHEMERIS_TYPE":0,"CLASSIFICATION_TYPE":"U","NORAD_CAT_ID":45044,"ELEMENT_SET_NO":999,"REV_AT_EPOCH":33590,"BSTAR":0.0016496,"MEAN_MOTION_DOT":0.00073903,"MEAN_MOTION_DDOT":0},{"OBJECT_NAME":"STARLINK-1131","OBJECT_ID":"2020-006D","EPOCH":"2026-03-03T01:39:37.824192","MEAN_MOTION":15.30197528,"ECCENTRICITY":0.0001442,"INCLINATION":53.1602,"RA_OF_ASC_NODE":311.7334,"ARG_OF_PERICENTER":77.6794,"MEAN_ANOMALY":282.4368,"EPHEMERIS_TYPE":0,"CLASSIFICATION_TYPE":"U","NORAD_CAT_ID":45047,"ELEMENT_SET_NO":999,"REV_AT_EPOCH":33553,"BSTAR":5.1819e-5,"MEAN_MOTION_DOT":1.176e-5,"MEAN_MOTION_DDOT":0},{"OBJECT_NAME":"STARLINK-1134","OBJECT_ID":"2020-006E","EPOCH":"2026-03-02T21:23:43.922976","MEAN_MOTION":15.42730137,"ECCENTRICITY":0.0009967,"INCLINATION":53.0331,"RA_OF_ASC_NODE":270.619,"ARG_OF_PERICENTER":148.3402,"MEAN_ANOMALY":211.8204,"EPHEMERIS_TYPE":0,"CLASSIFICATION_TYPE":"U","NORAD_CAT_ID":45048,"ELEMENT_SET_NO":999,"REV_AT_EPOCH":33609,"BSTAR":0.002263,"MEAN_MOTION_DOT":0.0010146,"MEAN_MOTION_DDOT":0},{"OBJECT_NAME":"STARLINK-1156","OBJECT_ID":"2020-006L","EPOCH":"2026-03-03T02:17:32.772480","MEAN_MOTION":15.30206149,"ECCENTRICITY":0.0001285,"INCLINATION":53.1608,"RA_OF_ASC_NODE":311.6228,"ARG_OF_PERICENTER":90.2894,"MEAN_ANOMALY":269.8254,"EPHEMERIS_TYPE":0,"CLASSIFICATION_TYPE":"U","NORAD_CAT_ID":45054,"ELEMENT_SET_NO":999,"REV_AT_EPOCH":33553,"BSTAR":9.9415e-5,"MEAN_MOTION_DOT":2.587e-5,"MEAN_MOTION_DDOT":0},{"OBJECT_NAME":"STARLINK-1159","OBJECT_ID":"2020-006P","EPOCH":"2026-03-03T00:00:02.000160","MEAN_MOTION":15.79671236,"ECCENTRICITY":0.00044438,"INCLINATION":53.0449,"RA_OF_ASC_NODE":268.3813,"ARG_OF_PERICENTER":123.371,"MEAN_ANOMALY":281.8073,"EPHEMERIS_TYPE":0,"CLASSIFICATION_TYPE":"U","NORAD_CAT_ID":45057,"ELEMENT_SET_NO":999,"REV_AT_EPOCH":598,"BSTAR":0.0010520293,"MEAN_MOTION_DOT":0.00200577,"MEAN_MOTION_DDOT":0},{"OBJECT_NAME":"STARLINK-1166","OBJECT_ID":"2020-006S","EPOCH":"2026-03-03T04:07:12.484992","MEAN_MOTION":15.44167383,"ECCENTRICITY":0.0005941,"INCLINATION":53.0532,"RA_OF_ASC_NODE":303.7148,"ARG_OF_PERICENTER":119.34,"MEAN_ANOMALY":240.8199,"EPHEMERIS_TYPE":0,"CLASSIFICATION_TYPE":"U","NORAD_CAT_ID":45060,"ELEMENT_SET_NO":999,"REV_AT_EPOCH":33565,"BSTAR":0.00085506,"MEAN_MOTION_DOT":0.00039619,"MEAN_MOTION_DDOT":0},{"OBJECT_NAME":"STARLINK-1169","OBJECT_ID":"2020-006T","EPOCH":"2026-03-02T22:22:25.718304","MEAN_MOTION":15.30189174,"ECCENTRICITY":0.0001291,"INCLINATION":53.1591,"RA_OF_ASC_NODE":312.3843,"ARG_OF_PERICENTER":96.4426,"MEAN_ANOMALY":263.6722,"EPHEMERIS_TYPE":0,"CLASSIFICATION_TYPE":"U","NORAD_CAT_ID":45061,"ELEMENT_SET_NO":999,"REV_AT_EPOCH":33551,"BSTAR":7.4772e-6,"MEAN_MOTION_DOT":-1.38e-6,"MEAN_MOTION_DDOT":0},{"OBJECT_NAME":"STARLINK-1171","OBJECT_ID":"2020-006U","EPOCH":"2026-03-02T21:51:41.501664","MEAN_MOTION":15.5591094,"ECCENTRICITY":0.0001789,"INCLINATION":53.0457,"RA_OF_ASC_NODE":282.379,"ARG_OF_PERICENTER":351.1963,"MEAN_ANOMALY":8.9016,"EPHEMERIS_TYPE":0,"CLASSIFICATION_TYPE":"U","NORAD_CAT_ID":45062,"ELEMENT_SET_NO":999,"REV_AT_EPOCH":33593,"BSTAR":0.00082664,"MEAN_MOTION_DOT":0.0005829,"MEAN_MOTION_DDOT":0},{"OBJECT_NAME":"STARLINK-1133","OBJECT_ID":"2020-006W","EPOCH":"2026-03-03T00:04:48.569088","MEAN_MOTION":15.30192344,"ECCENTRICITY":0.0001517,"INCLINATION":53.1602,"RA_OF_ASC_NODE":288.8522,"ARG_OF_PERICENTER":83.3941,"MEAN_ANOMALY":276.7232,"EPHEMERIS_TYPE":0,"CLASSIFICATION_TYPE":"U","NORAD_CAT_ID":45064,"ELEMENT_SET_NO":999,"REV_AT_EPOCH":33585,"BSTAR":2.2675e-5,"MEAN_MOTION_DOT":3.12e-6,"MEAN_MOTION_DDOT":0},{"OBJECT_NAME":"STARLINK-1167","OBJECT_ID":"2020-006AD","EPOCH":"2026-03-02T21:31:32.928960","MEAN_MOTION":15.29354595,"ECCENTRICITY":0.0001373,"INCLINATION":53.1609,"RA_OF_ASC_NODE":289.3629,"ARG_OF_PERICENTER":89.9394,"MEAN_ANOMALY":270.1763,"EPHEMERIS_TYPE":0,"CLASSIFICATION_TYPE":"U","NORAD_CAT_ID":45071,"ELEMENT_SET_NO":999,"REV_AT_EPOCH":33583,"BSTAR":0.00012024,"MEAN_MOTION_DOT":3.115e-5,"MEAN_MOTION_DDOT":0},{"OBJECT_NAME":"STARLINK-1168","OBJECT_ID":"2020-006AE","EPOCH":"2026-03-03T00:53:51.602784","MEAN_MOTION":15.29372924,"ECCENTRICITY":0.0001284,"INCLINATION":53.1606,"RA_OF_ASC_NODE":288.7719,"ARG_OF_PERICENTER":92.5026,"MEAN_ANOMALY":267.6122,"EPHEMERIS_TYPE":0,"CLASSIFICATION_TYPE":"U","NORAD_CAT_ID":45072,"ELEMENT_SET_NO":999,"REV_AT_EPOCH":33585,"BSTAR":8.9395e-5,"MEAN_MOTION_DOT":2.226e-5,"MEAN_MOTION_DDOT":0},{"OBJECT_NAME":"STARLINK-1172","OBJECT_ID":"2020-006AG","EPOCH":"2026-03-03T01:05:29.081472","MEAN_MOTION":15.30209075,"ECCENTRICITY":0.0001135,"INCLINATION":53.159,"RA_OF_ASC_NODE":288.686,"ARG_OF_PERICENTER":86.5283,"MEAN_ANOMALY":273.5848,"EPHEMERIS_TYPE":0,"CLASSIFICATION_TYPE":"U","NORAD_CAT_ID":45074,"ELEMENT_SET_NO":999,"REV_AT_EPOCH":33585,"BSTAR":2.8209e-5,"MEAN_MOTION_DOT":4.77e-6,"MEAN_MOTION_DDOT":0},{"OBJECT_NAME":"STARLINK-1153","OBJECT_ID":"2020-006AN","EPOCH":"2026-03-03T00:17:20.148864","MEAN_MOTION":15.29337683,"ECCENTRICITY":0.0001016,"INCLINATION":53.1593,"RA_OF_ASC_NODE":288.7464,"ARG_OF_PERICENTER":90.5886,"MEAN_ANOMALY":269.5231,"EPHEMERIS_TYPE":0,"CLASSIFICATION_TYPE":"U","NORAD_CAT_ID":45080,"ELEMENT_SET_NO":999,"REV_AT_EPOCH":33585,"BSTAR":0.00010995,"MEAN_MOTION_DOT":2.816e-5,"MEAN_MOTION_DDOT":0},{"OBJECT_NAME":"STARLINK-1151","OBJECT_ID":"2020-006AP","EPOCH":"2026-03-03T06:00:00.998784","MEAN_MOTION":15.64562105,"ECCENTRICITY":0.0001172,"INCLINATION":53.0524,"RA_OF_ASC_NODE":271.3859,"ARG_OF_PERICENTER":89.0928,"MEAN_ANOMALY":273.2696,"EPHEMERIS_TYPE":0,"CLASSIFICATION_TYPE":"U","NORAD_CAT_ID":45081,"ELEMENT_SET_NO":999,"REV_AT_EPOCH":591,"BSTAR":-0.0013659,"MEAN_MOTION_DOT":-0.00132686,"MEAN_MOTION_DDOT":0},{"OBJECT_NAME":"STARLINK-1185","OBJECT_ID":"2020-006AV","EPOCH":"2026-03-02T22:04:58.049184","MEAN_MOTION":15.29357416,"ECCENTRICITY":0.0001245,"INCLINATION":53.1571,"RA_OF_ASC_NODE":273.8441,"ARG_OF_PERICENTER":85.486,"MEAN_ANOMALY":274.6282,"EPHEMERIS_TYPE":0,"CLASSIFICATION_TYPE":"U","NORAD_CAT_ID":45087,"ELEMENT_SET_NO":999,"REV_AT_EPOCH":33605,"BSTAR":2.6037e-5,"MEAN_MOTION_DOT":3.96e-6,"MEAN_MOTION_DDOT":0},{"OBJECT_NAME":"STARLINK-1183","OBJECT_ID":"2020-006AW","EPOCH":"2026-03-02T19:54:23.806080","MEAN_MOTION":15.30188353,"ECCENTRICITY":0.0001633,"INCLINATION":53.1588,"RA_OF_ASC_NODE":274.447,"ARG_OF_PERICENTER":111.2497,"MEAN_ANOMALY":248.8678,"EPHEMERIS_TYPE":0,"CLASSIFICATION_TYPE":"U","NORAD_CAT_ID":45088,"ELEMENT_SET_NO":999,"REV_AT_EPOCH":33603,"BSTAR":3.4223e-6,"MEAN_MOTION_DOT":-2.58e-6,"MEAN_MOTION_DDOT":0},{"OBJECT_NAME":"STARLINK-1152","OBJECT_ID":"2020-006BE","EPOCH":"2026-03-02T21:42:52.464960","MEAN_MOTION":15.37461132,"ECCENTRICITY":0.0005375,"INCLINATION":53.0389,"RA_OF_ASC_NODE":238.4661,"ARG_OF_PERICENTER":171.9698,"MEAN_ANOMALY":188.1391,"EPHEMERIS_TYPE":0,"CLASSIFICATION_TYPE":"U","NORAD_CAT_ID":45096,"ELEMENT_SET_NO":999,"REV_AT_EPOCH":33654,"BSTAR":0.0019045,"MEAN_MOTION_DOT":0.00071303,"MEAN_MOTION_DDOT":0},{"OBJECT_NAME":"STARLINK-1184","OBJECT_ID":"2020-006BG","EPOCH":"2026-03-02T21:57:46.286784","MEAN_MOTION":15.09892758,"ECCENTRICITY":0.000644,"INCLINATION":53.0526,"RA_OF_ASC_NODE":276.0037,"ARG_OF_PERICENTER":116.3642,"MEAN_ANOMALY":243.801,"EPHEMERIS_TYPE":0,"CLASSIFICATION_TYPE":"U","NORAD_CAT_ID":45098,"ELEMENT_SET_NO":999,"REV_AT_EPOCH":33601,"BSTAR":0.00028576,"MEAN_MOTION_DOT":4.393e-5,"MEAN_MOTION_DDOT":0},{"OBJECT_NAME":"STARLINK-1193","OBJECT_ID":"2020-006BJ","EPOCH":"2026-03-03T06:00:00.998784","MEAN_MOTION":15.54209574,"ECCENTRICITY":0.0001187,"INCLINATION":53.0529,"RA_OF_ASC_NODE":261.5532,"ARG_OF_PERICENTER":79.4255,"MEAN_ANOMALY":74.8427,"EPHEMERIS_TYPE":0,"CLASSIFICATION_TYPE":"U","NORAD_CAT_ID":45100,"ELEMENT_SET_NO":999,"REV_AT_EPOCH":590,"BSTAR":0.00087681,"MEAN_MOTION_DOT":0.00058087,"MEAN_MOTION_DDOT":0},{"OBJECT_NAME":"STARLINK-1143","OBJECT_ID":"2020-012B","EPOCH":"2026-03-03T06:00:00.998784","MEAN_MOTION":15.61149884,"ECCENTRICITY":0.0007091,"INCLINATION":53.0485,"RA_OF_ASC_NODE":1.3729,"ARG_OF_PERICENTER":73.6142,"MEAN_ANOMALY":30.0192,"EPHEMERIS_TYPE":0,"CLASSIFICATION_TYPE":"U","NORAD_CAT_ID":45179,"ELEMENT_SET_NO":999,"REV_AT_EPOCH":592,"BSTAR":0.0021635,"MEAN_MOTION_DOT":0.00190219,"MEAN_MOTION_DDOT":0},{"OBJECT_NAME":"STARLINK-1202","OBJECT_ID":"2020-012F","EPOCH":"2026-03-03T03:46:07.474944","MEAN_MOTION":15.30195994,"ECCENTRICITY":0.0001116,"INCLINATION":53.1616,"RA_OF_ASC_NODE":69.5947,"ARG_OF_PERICENTER":93.3418,"MEAN_ANOMALY":266.771,"EPHEMERIS_TYPE":0,"CLASSIFICATION_TYPE":"U","NORAD_CAT_ID":45183,"ELEMENT_SET_NO":999,"REV_AT_EPOCH":33395,"BSTAR":3.1141e-5,"MEAN_MOTION_DOT":5.63e-6,"MEAN_MOTION_DDOT":0},{"OBJECT_NAME":"STARLINK-1216","OBJECT_ID":"2020-012H","EPOCH":"2026-03-03T00:24:21.772224","MEAN_MOTION":15.3019335,"ECCENTRICITY":0.0001668,"INCLINATION":53.1618,"RA_OF_ASC_NODE":70.2254,"ARG_OF_PERICENTER":101.8906,"MEAN_ANOMALY":258.2282,"EPHEMERIS_TYPE":0,"CLASSIFICATION_TYPE":"U","NORAD_CAT_ID":45185,"ELEMENT_SET_NO":999,"REV_AT_EPOCH":33387,"BSTAR":1.2038e-5,"MEAN_MOTION_DOT":-3.0e-8,"MEAN_MOTION_DDOT":0}]
